[Satellite]
VERSION=1.1
NAME=IRIDIUM 120
NICKNAME=IRIDIUM 120
TLE1=1 42805U 17039C   17186.19804445  .00000130  00000-0  12216-4 0  9997
TLE2=2 42805  86.6682 279.6537 0012932 198.2761 161.8049 14.84080613  1383
